ONEWEB-0092             
1 45437U 20020P   26065.39954313  .00000015  00000+0  70776-5 0  9990
2 45437  87.8859  41.5002 0001812  72.1815 287.9511 13.11415337289313
ONEWEB-0085             
1 45438U 20020Q   26065.35969216 -.00000055  00000+0 -19160-3 0  9999
2 45438  87.8859  41.5121 0001839  82.2060 277.9277 13.11418006289199
ONEWEB-0096             
1 45439U 20020R   26065.36138963  .00000013  00000+0 -53258-6 0  9990
2 45439  87.8864  41.5000 0001772  83.0096 277.1233 13.11417613289182
ONEWEB-0037             
1 45440U 20020S   26065.87596421 -.00000511  00000+0 -14776-2 0  9997
2 45440  87.8869  41.3734 0001868  80.4003 279.7336 13.11415548289284
ONEWEB-0042             
1 45441U 20020T   26065.35106825 -.00000350  00000+0 -10248-2 0  9997
2 45441  87.8863  41.4999 0001747  82.6126 277.5201 13.11417368289187
ONEWEB-0098             
1 45442U 20020U   26065.34697069 -.00000477  00000+0 -13811-2 0  9991
2 45442  87.8859  41.5121 0001932  86.1583 273.9766 13.11416012289162
ONEWEB-0055             
1 45443U 20020V   26065.86410271 -.00000180  00000+0 -54258-3 0  9999
2 45443  87.8860  41.4088 0001860  84.4864 275.6476 13.11414956289206
ONEWEB-0093             
1 45444U 20020W   26065.38188108  .00000588  00000+0  16227-2 0  9991
2 45444  87.8866  41.4946 0001425  81.3368 278.7922 13.11415600289205
ONEWEB-0029             
1 45445U 20020X   26065.85562820  .00000163  00000+0  42525-3 0  9991
2 45445  87.8858  41.4120 0001672  85.3334 274.7985 13.11414187289240
ONEWEB-0068             
1 45446U 20020Y   26065.38160307  .00000535  00000+0  14737-2 0  9990
2 45446  87.8867  41.4971 0001633  85.3150 274.8164 13.11416057289123
ONEWEB-0046             
1 45447U 20020Z   26065.37326026  .00000444  00000+0  12168-2 0  9997
2 45447  87.8866  41.5054 0001720  76.3584 283.7735 13.11416714289138
ONEWEB-0063             
1 45448U 20020AA  26065.85985920  .00000007  00000+0 -15640-4 0  9991
2 45448  87.8864  41.4063 0001808  75.2603 284.8725 13.11414522289285
ONEWEB-0019             
1 45449U 20020AB  26065.36463929  .00000166  00000+0  43360-3 0  9992
2 45449  87.8855  41.4990 0001961  86.0653 274.0699 13.11417806289065
ONEWEB-0094             
1 45450U 20020AC  26065.84096725  .00000043  00000+0  78840-4 0  9999
2 45450  87.9156  26.1627 0001791  87.9415 272.1922 13.17646803292830
ONEWEB-0087             
1 45451U 20020AD  26065.33581003 -.00000457  00000+0 -13255-2 0  9990
2 45451  87.8869  41.4767 0001543  88.4099 271.7206 13.11415194289102
ONEWEB-0082             
1 45452U 20020AE  26065.33255642 -.00000377  00000+0 -10996-2 0  9998
2 45452  87.8866  41.5018 0001633  89.6016 270.5299 13.11415085289199
ONEWEB-0050             
1 45453U 20020AF  26065.46736047  .00002367  00000+0  24353-3 0  9998
2 45453  88.9195 247.1963 0003522  27.8825 332.2592 14.89988628325086
