[{"OBJECT_NAME":"ONEWEB-0092","OBJECT_ID":"2020-020P","EPOCH":"2026-03-06T09:35:20.526432","MEAN_MOTION":13.11415337,"ECCENTRICITY":0.00018124,"INCLINATION":87.8859,"RA_OF_ASC_NODE":41.5002,"ARG_OF_PERICENTER":72.1815,"MEAN_ANOMALY":287.9511,"EPHEMERIS_TYPE":0,"CLASSIFICATION_TYPE":"U","NORAD_CAT_ID":45437,"ELEMENT_SET_NO":999,"REV_AT_EPOCH":28931,"BSTAR":7.07759e-6,"MEAN_MOTION_DOT":1.5e-7,"MEAN_MOTION_DDOT":0},{"OBJECT_NAME":"ONEWEB-0085","OBJECT_ID":"2020-020Q","EPOCH":"2026-03-06T08:37:57.402624","MEAN_MOTION":13.11418006,"ECCENTRICITY":0.00018393,"INCLINATION":87.8859,"RA_OF_ASC_NODE":41.5121,"ARG_OF_PERICENTER":82.206,"MEAN_ANOMALY":277.9277,"EPHEMERIS_TYPE":0,"CLASSIFICATION_TYPE":"U","NORAD_CAT_ID":45438,"ELEMENT_SET_NO":999,"REV_AT_EPOCH":28919,"BSTAR":-0.00019159626,"MEAN_MOTION_DOT":-5.5e-7,"MEAN_MOTION_DDOT":0},{"OBJECT_NAME":"ONEWEB-0096","OBJECT_ID":"2020-020R","EPOCH":"2026-03-06T08:40:24.064032","MEAN_MOTION":13.11417613,"ECCENTRICITY":0.00017727,"INCLINATION":87.8864,"RA_OF_ASC_NODE":41.5,"ARG_OF_PERICENTER":83.0096,"MEAN_ANOMALY":277.1233,"EPHEMERIS_TYPE":0,"CLASSIFICATION_TYPE":"U","NORAD_CAT_ID":45439,"ELEMENT_SET_NO":999,"REV_AT_EPOCH":28918,"BSTAR":-5.32581e-7,"MEAN_MOTION_DOT":1.3e-7,"MEAN_MOTION_DDOT":0},{"OBJECT_NAME":"ONEWEB-0037","OBJECT_ID":"2020-020S","EPOCH":"2026-03-06T21:01:23.307744","MEAN_MOTION":13.11415548,"ECCENTRICITY":0.0001868,"INCLINATION":87.8869,"RA_OF_ASC_NODE":41.3734,"ARG_OF_PERICENTER":80.4003,"MEAN_ANOMALY":279.7336,"EPHEMERIS_TYPE":0,"CLASSIFICATION_TYPE":"U","NORAD_CAT_ID":45440,"ELEMENT_SET_NO":999,"REV_AT_EPOCH":28928,"BSTAR":-0.0014776,"MEAN_MOTION_DOT":-5.11e-6,"MEAN_MOTION_DDOT":0},{"OBJECT_NAME":"ONEWEB-0042","OBJECT_ID":"2020-020T","EPOCH":"2026-03-06T08:25:32.296800","MEAN_MOTION":13.11417368,"ECCENTRICITY":0.00017479,"INCLINATION":87.8863,"RA_OF_ASC_NODE":41.4999,"ARG_OF_PERICENTER":82.6126,"MEAN_ANOMALY":277.5201,"EPHEMERIS_TYPE":0,"CLASSIFICATION_TYPE":"U","NORAD_CAT_ID":45441,"ELEMENT_SET_NO":999,"REV_AT_EPOCH":28918,"BSTAR":-0.0010247763,"MEAN_MOTION_DOT":-3.5e-6,"MEAN_MOTION_DDOT":0},{"OBJECT_NAME":"ONEWEB-0098","OBJECT_ID":"2020-020U","EPOCH":"2026-03-06T08:19:38.267616","MEAN_MOTION":13.11416012,"ECCENTRICITY":0.00019329,"INCLINATION":87.8859,"RA_OF_ASC_NODE":41.5121,"ARG_OF_PERICENTER":86.1583,"MEAN_ANOMALY":273.9766,"EPHEMERIS_TYPE":0,"CLASSIFICATION_TYPE":"U","NORAD_CAT_ID":45442,"ELEMENT_SET_NO":999,"REV_AT_EPOCH":28916,"BSTAR":-0.0013811198,"MEAN_MOTION_DOT":-4.77e-6,"MEAN_MOTION_DDOT":0},{"OBJECT_NAME":"ONEWEB-0055","OBJECT_ID":"2020-020V","EPOCH":"2026-03-06T20:44:18.474144","MEAN_MOTION":13.11414956,"ECCENTRICITY":0.000186,"INCLINATION":87.886,"RA_OF_ASC_NODE":41.4088,"ARG_OF_PERICENTER":84.4864,"MEAN_ANOMALY":275.6476,"EPHEMERIS_TYPE":0,"CLASSIFICATION_TYPE":"U","NORAD_CAT_ID":45443,"ELEMENT_SET_NO":999,"REV_AT_EPOCH":28920,"BSTAR":-0.00054258,"MEAN_MOTION_DOT":-1.8e-6,"MEAN_MOTION_DDOT":0},{"OBJECT_NAME":"ONEWEB-0093","OBJECT_ID":"2020-020W","EPOCH":"2026-03-06T09:09:54.525312","MEAN_MOTION":13.114156,"ECCENTRICITY":0.00014257,"INCLINATION":87.8866,"RA_OF_ASC_NODE":41.4946,"ARG_OF_PERICENTER":81.3368,"MEAN_ANOMALY":278.7922,"EPHEMERIS_TYPE":0,"CLASSIFICATION_TYPE":"U","NORAD_CAT_ID":45444,"ELEMENT_SET_NO":999,"REV_AT_EPOCH":28920,"BSTAR":0.0016226517,"MEAN_MOTION_DOT":5.88e-6,"MEAN_MOTION_DDOT":0},{"OBJECT_NAME":"ONEWEB-0029","OBJECT_ID":"2020-020X","EPOCH":"2026-03-06T20:32:06.276480","MEAN_MOTION":13.11414187,"ECCENTRICITY":0.0001672,"INCLINATION":87.8858,"RA_OF_ASC_NODE":41.412,"ARG_OF_PERICENTER":85.3334,"MEAN_ANOMALY":274.7985,"EPHEMERIS_TYPE":0,"CLASSIFICATION_TYPE":"U","NORAD_CAT_ID":45445,"ELEMENT_SET_NO":999,"REV_AT_EPOCH":28924,"BSTAR":0.00042525,"MEAN_MOTION_DOT":1.63e-6,"MEAN_MOTION_DDOT":0},{"OBJECT_NAME":"ONEWEB-0068","OBJECT_ID":"2020-020Y","EPOCH":"2026-03-06T09:09:30.505248","MEAN_MOTION":13.11416057,"ECCENTRICITY":0.00016332,"INCLINATION":87.8867,"RA_OF_ASC_NODE":41.4971,"ARG_OF_PERICENTER":85.315,"MEAN_ANOMALY":274.8164,"EPHEMERIS_TYPE":0,"CLASSIFICATION_TYPE":"U","NORAD_CAT_ID":45446,"ELEMENT_SET_NO":999,"REV_AT_EPOCH":28912,"BSTAR":0.0014736974,"MEAN_MOTION_DOT":5.35e-6,"MEAN_MOTION_DDOT":0},{"OBJECT_NAME":"ONEWEB-0046","OBJECT_ID":"2020-020Z","EPOCH":"2026-03-06T08:57:29.686464","MEAN_MOTION":13.11416714,"ECCENTRICITY":0.00017204,"INCLINATION":87.8866,"RA_OF_ASC_NODE":41.5054,"ARG_OF_PERICENTER":76.3584,"MEAN_ANOMALY":283.7735,"EPHEMERIS_TYPE":0,"CLASSIFICATION_TYPE":"U","NORAD_CAT_ID":45447,"ELEMENT_SET_NO":999,"REV_AT_EPOCH":28913,"BSTAR":0.0012168334,"MEAN_MOTION_DOT":4.44e-6,"MEAN_MOTION_DDOT":0},{"OBJECT_NAME":"ONEWEB-0063","OBJECT_ID":"2020-020AA","EPOCH":"2026-03-06T20:38:11.834880","MEAN_MOTION":13.11414522,"ECCENTRICITY":0.0001808,"INCLINATION":87.8864,"RA_OF_ASC_NODE":41.4063,"ARG_OF_PERICENTER":75.2603,"MEAN_ANOMALY":284.8725,"EPHEMERIS_TYPE":0,"CLASSIFICATION_TYPE":"U","NORAD_CAT_ID":45448,"ELEMENT_SET_NO":999,"REV_AT_EPOCH":28928,"BSTAR":-1.564e-5,"MEAN_MOTION_DOT":7.0e-8,"MEAN_MOTION_DDOT":0},{"OBJECT_NAME":"ONEWEB-0019","OBJECT_ID":"2020-020AB","EPOCH":"2026-03-06T08:45:04.834656","MEAN_MOTION":13.11417806,"ECCENTRICITY":0.00019611,"INCLINATION":87.8855,"RA_OF_ASC_NODE":41.499,"ARG_OF_PERICENTER":86.0653,"MEAN_ANOMALY":274.0699,"EPHEMERIS_TYPE":0,"CLASSIFICATION_TYPE":"U","NORAD_CAT_ID":45449,"ELEMENT_SET_NO":999,"REV_AT_EPOCH":28906,"BSTAR":0.00043360058,"MEAN_MOTION_DOT":1.66e-6,"MEAN_MOTION_DDOT":0},{"OBJECT_NAME":"ONEWEB-0094","OBJECT_ID":"2020-020AC","EPOCH":"2026-03-06T20:10:59.570400","MEAN_MOTION":13.17646803,"ECCENTRICITY":0.0001791,"INCLINATION":87.9156,"RA_OF_ASC_NODE":26.1627,"ARG_OF_PERICENTER":87.9415,"MEAN_ANOMALY":272.1922,"EPHEMERIS_TYPE":0,"CLASSIFICATION_TYPE":"U","NORAD_CAT_ID":45450,"ELEMENT_SET_NO":999,"REV_AT_EPOCH":29283,"BSTAR":7.884e-5,"MEAN_MOTION_DOT":4.3e-7,"MEAN_MOTION_DDOT":0},{"OBJECT_NAME":"ONEWEB-0087","OBJECT_ID":"2020-020AD","EPOCH":"2026-03-06T08:03:33.986592","MEAN_MOTION":13.11415194,"ECCENTRICITY":0.00015432,"INCLINATION":87.8869,"RA_OF_ASC_NODE":41.4767,"ARG_OF_PERICENTER":88.4099,"MEAN_ANOMALY":271.7206,"EPHEMERIS_TYPE":0,"CLASSIFICATION_TYPE":"U","NORAD_CAT_ID":45451,"ELEMENT_SET_NO":999,"REV_AT_EPOCH":28910,"BSTAR":-0.0013255226,"MEAN_MOTION_DOT":-4.57e-6,"MEAN_MOTION_DDOT":0},{"OBJECT_NAME":"ONEWEB-0082","OBJECT_ID":"2020-020AE","EPOCH":"2026-03-06T07:58:52.874688","MEAN_MOTION":13.11415085,"ECCENTRICITY":0.0001633,"INCLINATION":87.8866,"RA_OF_ASC_NODE":41.5018,"ARG_OF_PERICENTER":89.6016,"MEAN_ANOMALY":270.5299,"EPHEMERIS_TYPE":0,"CLASSIFICATION_TYPE":"U","NORAD_CAT_ID":45452,"ELEMENT_SET_NO":999,"REV_AT_EPOCH":28919,"BSTAR":-0.0010996119,"MEAN_MOTION_DOT":-3.77e-6,"MEAN_MOTION_DDOT":0},{"OBJECT_NAME":"ONEWEB-0050","OBJECT_ID":"2020-020AF","EPOCH":"2026-03-06T11:12:59.944608","MEAN_MOTION":14.89988628,"ECCENTRICITY":0.00035227,"INCLINATION":88.9195,"RA_OF_ASC_NODE":247.1963,"ARG_OF_PERICENTER":27.8825,"MEAN_ANOMALY":332.2592,"EPHEMERIS_TYPE":0,"CLASSIFICATION_TYPE":"U","NORAD_CAT_ID":45453,"ELEMENT_SET_NO":999,"REV_AT_EPOCH":32508,"BSTAR":0.00024353036,"MEAN_MOTION_DOT":2.367e-5,"MEAN_MOTION_DDOT":0}]
